NORAD_CAT_ID,OBJECT_NAME,OBJECT_TYPE,EPOCH,MEAN_MOTION,ECCENTRICITY,INCLINATION,RA_OF_ASC_NODE,ARG_OF_PERICENTER,MEAN_ANOMALY,BSTAR,MEAN_MOTION_DOT,MEAN_MOTION_DDOT,TLE_LINE0,TLE_LINE1,TLE_LINE2,SEMIMAJOR_AXIS,PERIOD,APOGEE,PERIGEE,DECAYED
52090.0,STARLINK-3712,PAYLOAD,2024-03-04 11:34:12,15.08847261,0.0001898,53.2167,149.6038,66.3902,293.7289,0.00014045,1.948e-05,0.0,0 STARLINK-3712,1 52090U 22029C   24064.48208459  .00001948  00000-0  14045-3 0  9996,2 52090  53.2167 149.6038 0001898  66.3902 293.7289 15.08847261109669,6917.858,95.437,541.036,538.41,0.0
52090.0,STARLINK-3712,PAYLOAD,2024-03-04 13:09:33,15.08860934,0.0001376,53.2164,149.298,87.8032,272.3118,0.00027692,4.124e-05,0.0,0 STARLINK-3712,1 52090U 22029C   24064.54830932  .00004124  00000-0  27692-3 0  9991,2 52090  53.2164 149.2980 0001376  87.8032 272.3118 15.08860934109678,6917.816,95.436,540.633,538.73,0.0
52090.0,STARLINK-3712,PAYLOAD,2024-03-05 13:00:23,15.08826337,0.0001255,53.2165,144.8359,124.171,235.9402,-1.8729e-05,-5.86e-06,0.0,0 STARLINK-3712,1 52090U 22029C   24065.54194399 -.00000586  00000-0 -18729-4 0  9994,2 52090  53.2165 144.8359 0001255 124.1710 235.9402 15.08826337109821,6917.922,95.438,540.655,538.919,0.0
52090.0,STARLINK-3712,PAYLOAD,2024-03-06 11:15:46,15.08856189,0.0002285,53.2178,140.677,56.4187,303.7023,-4.8934e-05,-1.067e-05,0.0,0 STARLINK-3712,1 52090U 22029C   24066.46929070 -.00001067  00000-0 -48934-4 0  9994,2 52090  53.2178 140.6770 0002285  56.4187 303.7023 15.08856189109961,6917.831,95.437,541.277,538.115,0.0
52090.0,STARLINK-3712,PAYLOAD,2024-03-07 11:06:34,15.08836252,0.0001392,53.2168,136.2142,91.1472,268.968,0.00014736,2.058e-05,0.0,0 STARLINK-3712,1 52090U 22029C   24067.46289635  .00002058  00000-0  14736-3 0  9992,2 52090  53.2168 136.2142 0001392  91.1472 268.9680 15.08836252110114,6917.892,95.438,540.72,538.794,0.0
52090.0,STARLINK-3712,PAYLOAD,2024-03-08 10:57:20,15.08854037,0.0001319,53.2162,131.754,90.9309,269.1834,-1.8204e-05,-5.78e-06,0.0,0 STARLINK-3712,1 52090U 22029C   24068.45648853 -.00000578  00000-0 -18204-4 0  9995,2 52090  53.2162 131.7540 0001319  90.9309 269.1834 15.08854037110266,6917.837,95.437,540.615,538.79,0.0
52090.0,STARLINK-3712,PAYLOAD,2024-03-09 04:26:36,15.08832116,0.0001441,53.2153,128.4835,83.2089,276.9067,2.3945e-05,9.3e-07,0.0,0 STARLINK-3712,1 52090U 22029C   24069.18514078  .00000093  00000-0  23945-4 0  9995,2 52090  53.2153 128.4835 0001441  83.2089 276.9067 15.08832116110372,6917.904,95.438,540.766,538.773,0.0
52090.0,STARLINK-3712,PAYLOAD,2024-03-09 10:48:08,15.08836705,0.0001467,53.2159,127.2956,83.8673,276.2486,7.2055e-05,8.59e-06,0.0,0 STARLINK-3712,1 52090U 22029C   24069.45009767  .00000859  00000-0  72055-4 0  9995,2 52090  53.2159 127.2956 0001467  83.8673 276.2486 15.08836705110413,6917.89,95.438,540.77,538.741,0.0
52090.0,STARLINK-3712,PAYLOAD,2024-03-09 20:20:27,15.08836776,0.0001419,53.2158,125.5115,84.7298,275.3856,3.5787e-05,2.82e-06,0.0,0 STARLINK-3712,1 52090U 22029C   24069.84753895  .00000282  00000-0  35787-4 0  9997,2 52090  53.2158 125.5115 0001419  84.7298 275.3856 15.08836776110475,6917.89,95.438,540.737,538.774,0.0
52090.0,STARLINK-3712,PAYLOAD,2024-03-10 09:03:32,15.08838196,0.0001449,53.2165,123.1328,91.0635,269.0524,9.5805e-06,-1.35e-06,0.0,0 STARLINK-3712,1 52090U 22029C   24070.37745997 -.00000135  00000-0  95805-5 0  9997,2 52090  53.2165 123.1328 0001449  91.0635 269.0524 15.08838196110551,6917.886,95.438,540.753,538.749,0.0
52090.0,STARLINK-3712,PAYLOAD,2024-03-11 10:29:42,15.0884895,0.0001346,53.2165,118.3751,89.2888,270.8259,-3.8298e-05,-8.98e-06,0.0,0 STARLINK-3712,1 52090U 22029C   24071.43729537 -.00000898  00000-0 -38298-4 0  9996,2 52090  53.2165 118.3751 0001346  89.2888 270.8259 15.08848950110714,6917.853,95.437,540.649,538.787,0.0
52090.0,STARLINK-3712,PAYLOAD,2024-03-11 20:02:01,15.08840954,0.0001472,53.2169,116.5889,85.7718,274.3443,7.9657e-05,9.8e-06,0.0,0 STARLINK-3712,1 52090U 22029C   24071.83473852  .00000980  00000-0  79657-4 0  9990,2 52090  53.2169 116.5889 0001472  85.7718 274.3443 15.08840954110779,6917.877,95.437,540.761,538.724,0.0
52090.0,STARLINK-3712,PAYLOAD,2024-03-12 11:55:53,15.08837457,0.0001556,53.2172,113.6106,82.5208,277.5961,5.273e-05,5.51e-06,0.0,0 STARLINK-3712,1 52090U 22029C   24072.49714315  .00000551  00000-0  52730-4 0  9992,2 52090  53.2172 113.6106 0001556  82.5208 277.5961 15.08837457110870,6917.888,95.438,540.83,538.677,0.0
52090.0,STARLINK-3712,PAYLOAD,2024-03-12 19:52:48,15.08837969,0.0001457,53.2167,112.1278,104.3077,255.8077,4.9107e-05,4.94e-06,0.0,0 STARLINK-3712,1 52090U 22029C   24072.82834212  .00000494  00000-0  49107-4 0  9998,2 52090  53.2167 112.1278 0001457 104.3077 255.8077 15.08837969110926,6917.887,95.438,540.76,538.744,0.0
52090.0,STARLINK-3712,PAYLOAD,2024-03-13 08:35:53,15.0884292,0.0001276,53.2154,109.7486,88.6569,271.4569,3.3002e-05,2.37e-06,0.0,0 STARLINK-3712,1 52090U 22029C   24073.35826012  .00000237  00000-0  33002-4 0  9998,2 52090  53.2154 109.7486 0001276  88.6569 271.4569 15.08842920111007,6917.871,95.437,540.619,538.854,0.0
52090.0,STARLINK-3712,PAYLOAD,2024-03-13 19:43:35,15.08842044,0.0001265,53.2151,107.6667,89.8495,270.2642,3.3943e-05,2.52e-06,0.0,0 STARLINK-3712,1 52090U 22029C   24073.82194004  .00000252  00000-0  33943-4 0  9990,2 52090  53.2151 107.6667 0001265  89.8495 270.2642 15.08842044111074,6917.874,95.437,540.614,538.864,0.0
52090.0,STARLINK-3712,PAYLOAD,2024-03-14 06:51:18,15.08828484,0.0001194,53.215,105.585,92.9647,267.1481,0.00019156,2.761e-05,0.0,0 STARLINK-3712,1 52090U 22029C   24074.28562521  .00002761  00000-0  19156-3 0  9990,2 52090  53.2150 105.5850 0001194  92.9647 267.1481 15.08828484111145,6917.916,95.438,540.607,538.955,0.0
52090.0,STARLINK-3712,PAYLOAD,2024-03-14 11:37:26,15.08842677,0.000134,53.2149,104.6925,92.6933,267.4212,6.5584e-05,7.56e-06,0.0,0 STARLINK-3712,1 52090U 22029C   24074.48433894  .00000756  00000-0  65584-4 0  9991,2 52090  53.2149 104.6925 0001340  92.6933 267.4212 15.08842677111172,6917.872,95.437,540.664,538.81,0.0
52090.0,STARLINK-3712,PAYLOAD,2024-03-15 05:06:42,15.08832564,0.0001364,53.2145,101.4203,97.3003,262.8144,6.2498e-05,7.07e-06,0.0,0 STARLINK-3712,1 52090U 22029C   24075.21298629  .00000707  00000-0  62498-4 0  9995,2 52090  53.2145 101.4203 0001364  97.3003 262.8144 15.08832564111287,6917.903,95.438,540.712,538.825,0.0
52090.0,STARLINK-3712,PAYLOAD,2024-03-15 08:17:30,15.08743454,0.0001923,53.2152,100.8243,97.9816,262.1394,0.0013324,0.00020925,0.0,0 STARLINK-3712,1 52090U 22029C   24075.34548660  .00020925  00000-0  13324-2 0  9998,2 52090  53.2152 100.8243 0001923  97.9816 262.1394 15.08743454111303,6918.176,95.444,541.371,538.71,0.0
52090.0,STARLINK-3712,PAYLOAD,2024-03-16 04:57:29,15.0883798,0.0001598,53.2164,96.9588,96.2184,263.899,2.6454e-05,1.33e-06,0.0,0 STARLINK-3712,1 52090U 22029C   24076.20658565  .00000133  00000-0  26454-4 0  9999,2 52090  53.2164  96.9588 0001598  96.2184 263.8990 15.08837980111433,6917.887,95.438,540.857,538.646,0.0
52090.0,STARLINK-3712,PAYLOAD,2024-03-16 08:08:15,15.08837106,0.000158,53.2165,96.364,95.911,264.2062,2.5118e-05,1.12e-06,0.0,0 STARLINK-3712,1 52090U 22029C   24076.33906634  .00000112  00000-0  25118-4 0  9999,2 52090  53.2165  96.3640 0001580  95.9110 264.2062 15.08837106111450,6917.889,95.438,540.847,538.661,0.0
52090.0,STARLINK-3712,PAYLOAD,2024-03-17 06:23:39,15.0883918,0.0001628,53.2171,92.206,105.0827,255.0345,6.7261e-05,7.83e-06,0.0,0 STARLINK-3712,1 52090U 22029C   24077.26642519  .00000783  00000-0  67261-4 0  9990,2 52090  53.2171  92.2060 0001628 105.0827 255.0345 15.08839180111590,6917.883,95.438,540.874,538.622,0.0
52090.0,STARLINK-3712,PAYLOAD,2024-03-18 06:14:26,15.08837108,0.0001521,53.2172,87.7457,99.1569,260.9595,3.7886e-05,3.15e-06,0.0,0 STARLINK-3712,1 52090U 22029C   24078.26002922  .00000315  00000-0  37886-4 0  9990,2 52090  53.2172  87.7457 0001521  99.1569 260.9595 15.08837108111745,6917.889,95.438,540.806,538.702,0.0
52090.0,STARLINK-3712,PAYLOAD,2024-03-19 09:15:59,15.08846674,0.000145,53.2163,82.6892,87.0047,273.1111,8.3527e-05,1.042e-05,0.0,0 STARLINK-3712,1 52090U 22029C   24079.38610364  .00001042  00000-0  83527-4 0  9990,2 52090  53.2163  82.6892 0001450  87.0047 273.1111 15.08846674111917,6917.86,95.437,540.728,538.722,0.0
52090.0,STARLINK-3712,PAYLOAD,2024-03-20 07:31:23,15.08844834,0.0001527,53.2168,78.5223,86.0518,274.0648,9.424e-05,1.212e-05,0.0,0 STARLINK-3712,1 52090U 22029C   24080.31346353  .00001212  00000-0  94240-4 0  9992,2 52090  53.2168  78.5223 0001527  86.0518 274.0648 15.08844834112058,6917.866,95.437,540.787,538.674,0.0
52090.0,STARLINK-3712,PAYLOAD,2024-03-21 05:46:47,15.0884319,0.0001389,53.2159,74.3627,98.1919,261.923,-2.3414e-05,-6.61e-06,0.0,0 STARLINK-3712,1 52090U 22029C   24081.24082743 -.00000661  00000-0 -23414-4 0  9999,2 52090  53.2159  74.3627 0001389  98.1919 261.9230 15.08843190112196,6917.871,95.437,540.697,538.775,0.0
52090.0,STARLINK-3712,PAYLOAD,2024-03-21 16:54:29,15.08844158,0.0001417,53.2163,72.2795,95.7862,264.3292,1.5683e-07,-2.85e-06,0.0,0 STARLINK-3712,1 52090U 22029C   24081.70450525 -.00000285  00000-0  15683-6 0  9999,2 52090  53.2163  72.2795 0001417  95.7862 264.3292 15.08844158112264,6917.868,95.437,540.713,538.752,0.0
52090.0,STARLINK-3712,PAYLOAD,2024-03-22 05:37:33,15.08851526,0.0001342,53.2155,69.8992,102.8782,257.236,7.2632e-05,8.69e-06,0.0,0 STARLINK-3712,1 52090U 22029C   24082.23441676  .00000869  00000-0  72632-4 0  9997,2 52090  53.2155  69.8992 0001342 102.8782 257.2360 15.08851526112347,6917.845,95.437,540.639,538.782,0.0
52090.0,STARLINK-3712,PAYLOAD,2024-03-23 03:53:00,15.08823155,0.0001214,53.2156,65.7369,96.7557,263.3574,-7.5837e-05,-1.494e-05,0.0,0 STARLINK-3712,1 52090U 22029C   24083.16180745 -.00001494  00000-0 -75837-4 0  9994,2 52090  53.2156  65.7369 0001214  96.7557 263.3574 15.08823155112487,6917.932,95.439,540.637,538.957,0.0
